[{"OBJECT_NAME":"YAOGAN-30 06C","OBJECT_ID":"2019-045C","EPOCH":"2026-03-09T20:24:37.552032","MEAN_MOTION":15.02172666,"ECCENTRICITY":0.00010812,"INCLINATION":34.9925,"RA_OF_ASC_NODE":214.7382,"ARG_OF_PERICENTER":261.6749,"MEAN_ANOMALY":98.3837,"EPHEMERIS_TYPE":0,"CLASSIFICATION_TYPE":"U","NORAD_CAT_ID":44451,"ELEMENT_SET_NO":999,"REV_AT_EPOCH":36160,"BSTAR":0.00032595529,"MEAN_MOTION_DOT":4.352e-5,"MEAN_MOTION_DDOT":0},{"OBJECT_NAME":"STARLINK-5333","OBJECT_ID":"2023-065E","EPOCH":"2026-03-08T17:07:49.144800","MEAN_MOTION":15.02513489,"ECCENTRICITY":0.0001451,"INCLINATION":43.0024,"RA_OF_ASC_NODE":176.9775,"ARG_OF_PERICENTER":264.6658,"MEAN_ANOMALY":95.4019,"EPHEMERIS_TYPE":0,"CLASSIFICATION_TYPE":"U","NORAD_CAT_ID":56507,"ELEMENT_SET_NO":999,"REV_AT_EPOCH":15692,"BSTAR":-0.00014921505,"MEAN_MOTION_DOT":-2.217e-5,"MEAN_MOTION_DDOT":0}]
