YAOGAN-30 06C           
1 44451U 19045C   26068.85043463  .00004352  00000+0  32596-3 0  9993
2 44451  34.9925 214.7382 0001081 261.6749  98.3837 15.02172666361604
STARLINK-5333           
1 56507U 23065E   26067.71376325 -.00002217  00000+0 -14922-3 0  9998
2 56507  43.0024 176.9775 0001451 264.6658  95.4019 15.02513489156927
